{"type": "FeatureCollection", "features": [ {"type": "Feature", "properties": {"norad_id": 44476, "name": "INTELSAT 39 (IS-39)", "group": "intelsat", "lat": 0.02652670242924388, "lon": 15.298870581791098, "alt_km": 35789.16963309038, "timestamp": "2025-12-08T15:42:49.446557+00:00", "meta": {"OBJECT_NAME": "INTELSAT 39 (IS-39)", "OBJECT_ID": "2019-049B", "EPOCH": "2025-12-08T05:20:15.073152", "MEAN_MOTION": 1.00270225, "ECCENTRICITY": 8.498e-05, "INCLINATION": 0.0172, "RA_OF_ASC_NODE": 325.2678, "ARG_OF_PERICENTER": 188.8959, "MEAN_ANOMALY": 65.0792, "EPHEMERIS_TYPE": 0, "CLASSIFICATION_TYPE": "U", "NORAD_CAT_ID": 44476, "ELEMENT_SET_NO": 999, "REV_AT_EPOCH": 2321, "BSTAR": 0, "MEAN_MOTION_DOT": 3.6e-07, "MEAN_MOTION_DDOT": 0}, "tle": {"line1": "1 44476U 19049B   25342.22239668  .00000036  00000+0  00000+0 0  9999", "line2": "2 44476   0.0172 325.2678 0000849 188.8959  65.0792  1.00270225 23215"}}, "geometry": {"type": "Point", "coordinates": [15.298870581791098, 0.02652670242924388]}}, {"type": "Feature", "properties": {"norad_id": 46114, "name": "GALAXY 30 (G-30)", "group": "intelsat", "lat": -0.013565190067762566, "lon": -171.67128354980622, "alt_km": 35782.3737573764, "timestamp": "2025-12-08T15:42:49.446569+00:00", "meta": {"OBJECT_NAME": "GALAXY 30 (G-30)", "OBJECT_ID": "2020-056C", "EPOCH": "2025-12-08T05:46:43.301280", "MEAN_MOTION": 1.00270993, "ECCENTRICITY": 0.0002437, "INCLINATION": 0.017, "RA_OF_ASC_NODE": 351.6835, "ARG_OF_PERICENTER": 264.3869, "MEAN_ANOMALY": 142.8564, "EPHEMERIS_TYPE": 0, "CLASSIFICATION_TYPE": "U", "NORAD_CAT_ID": 46114, "ELEMENT_SET_NO": 999, "REV_AT_EPOCH": 1937, "BSTAR": 0, "MEAN_MOTION_DOT": 3.9e-07, "MEAN_MOTION_DDOT": 0}, "tle": {"line1": "1 46114U 20056C   25342.24077895  .00000039  00000+0  00000+0 0  9997", "line2": "2 46114   0.0170 351.6835 0002437 264.3869 142.8564  1.00270993 19372"}}, "geometry": {"type": "Point", "coordinates": [-171.67128354980622, -0.013565190067762566]}}, {"type": "Feature", "properties": {"norad_id": 54026, "name": "GALAXY 33 (G-33)", "group": "intelsat", "lat": -0.022651775449680105, "lon": -179.6642017717165, "alt_km": 35782.69418522631, "timestamp": "2025-12-08T15:42:49.446581+00:00", "meta": {"OBJECT_NAME": "GALAXY 33 (G-33)", "OBJECT_ID": "2022-128A", "EPOCH": "2025-12-08T05:42:50.193216", "MEAN_MOTION": 1.00271663, "ECCENTRICITY": 0.00022726, "INCLINATION": 0.0169, "RA_OF_ASC_NODE": 300.5528, "ARG_OF_PERICENTER": 309.077, "MEAN_ANOMALY": 140.3276, "EPHEMERIS_TYPE": 0, "CLASSIFICATION_TYPE": "U", "NORAD_CAT_ID": 54026, "ELEMENT_SET_NO": 999, "REV_AT_EPOCH": 1182, "BSTAR": 0, "MEAN_MOTION_DOT": 8.2e-07, "MEAN_MOTION_DDOT": 0}, "tle": {"line1": "1 54026U 22128A   25342.23808094  .00000082  00000+0  00000+0 0  9990", "line2": "2 54026   0.0169 300.5528 0002272 309.0770 140.3276  1.00271663 11828"}}, "geometry": {"type": "Point", "coordinates": [-179.6642017717165, -0.022651775449680105]}}, {"type": "Feature", "properties": {"norad_id": 54027, "name": "GALAXY 34 (G-34)", "group": "intelsat", "lat": -0.02998315491702723, "lon": -175.59011685489685, "alt_km": 35783.81010855659, "timestamp": "2025-12-08T15:42:49.446593+00:00", "meta": {"OBJECT_NAME": "GALAXY 34 (G-34)", "OBJECT_ID": "2022-128B", "EPOCH": "2025-12-08T05:44:47.318784", "MEAN_MOTION": 1.00270169, "ECCENTRICITY": 0.00013611, "INCLINATION": 0.0273, "RA_OF_ASC_NODE": 316.9402, "ARG_OF_PERICENTER": 289.4406, "MEAN_ANOMALY": 148.1317, "EPHEMERIS_TYPE": 0, "CLASSIFICATION_TYPE": "U", "NORAD_CAT_ID": 54027, "ELEMENT_SET_NO": 999, "REV_AT_EPOCH": 1199, "BSTAR": 0, "MEAN_MOTION_DOT": 0, "MEAN_MOTION_DDOT": 0}, "tle": {"line1": "1 54027U 22128B   25342.23943656  .00000000  00000+0  00000+0 0  9995", "line2": "2 54027   0.0273 316.9402 0001361 289.4406 148.1317  1.00270169 11992"}}, "geometry": {"type": "Point", "coordinates": [-175.59011685489685, -0.02998315491702723]}}, {"type": "Feature", "properties": {"norad_id": 54243, "name": "GALAXY 31 (G-31)", "group": "intelsat", "lat": -0.022840629138229058, "lon": -167.65509448301594, "alt_km": 35783.046664951245, "timestamp": "2025-12-08T15:42:49.446605+00:00", "meta": {"OBJECT_NAME": "GALAXY 31 (G-31)", "OBJECT_ID": "2022-153A", "EPOCH": "2025-12-08T05:49:39.710208", "MEAN_MOTION": 1.00273838, "ECCENTRICITY": 0.00019373, "INCLINATION": 0.0222, "RA_OF_ASC_NODE": 258.0312, "ARG_OF_PERICENTER": 7.0498, "MEAN_ANOMALY": 138.5901, "EPHEMERIS_TYPE": 0, "CLASSIFICATION_TYPE": "U", "NORAD_CAT_ID": 54243, "ELEMENT_SET_NO": 999, "REV_AT_EPOCH": 521, "BSTAR": 0, "MEAN_MOTION_DOT": 1.5e-07, "MEAN_MOTION_DDOT": 0}, "tle": {"line1": "1 54243U 22153A   25342.24282072  .00000015  00000+0  00000+0 0  9998", "line2": "2 54243   0.0222 258.0312 0001937   7.0498 138.5901  1.00273838  5212"}}, "geometry": {"type": "Point", "coordinates": [-167.65509448301594, -0.022840629138229058]}}, {"type": "Feature", "properties": {"norad_id": 54244, "name": "GALAXY 32 (G-32)", "group": "intelsat", "lat": -0.02790238012100467, "lon": -137.6728106429862, "alt_km": 35785.39885285857, "timestamp": "2025-12-08T15:42:49.446616+00:00", "meta": {"OBJECT_NAME": "GALAXY 32 (G-32)", "OBJECT_ID": "2022-153B", "EPOCH": "2025-12-08T06:05:59.661600", "MEAN_MOTION": 1.00270611, "ECCENTRICITY": 0.00027185, "INCLINATION": 0.0093, "RA_OF_ASC_NODE": 337.982, "ARG_OF_PERICENTER": 329.4117, "MEAN_ANOMALY": 130.3686, "EPHEMERIS_TYPE": 0, "CLASSIFICATION_TYPE": "U", "NORAD_CAT_ID": 54244, "ELEMENT_SET_NO": 999, "REV_AT_EPOCH": 1122, "BSTAR": 0, "MEAN_MOTION_DOT": -1.72e-06, "MEAN_MOTION_DDOT": 0}, "tle": {"line1": "1 54244U 22153B   25342.25416275 -.00000172  00000+0  00000+0 0  9999", "line2": "2 54244   0.0093 337.9820 0002718 329.4117 130.3686  1.00270611 11221"}}, "geometry": {"type": "Point", "coordinates": [-137.6728106429862, -0.02790238012100467]}}, {"type": "Feature", "properties": {"norad_id": 54741, "name": "GALAXY 35 (G-35)", "group": "intelsat", "lat": -0.006183218039426273, "lon": -139.7495205771948, "alt_km": 35778.055207310375, "timestamp": "2025-12-08T15:42:49.446628+00:00", "meta": {"OBJECT_NAME": "GALAXY 35 (G-35)", "OBJECT_ID": "2022-170A", "EPOCH": "2025-12-08T06:05:11.066784", "MEAN_MOTION": 1.00271048, "ECCENTRICITY": 0.0002692, "INCLINATION": 0.0173, "RA_OF_ASC_NODE": 70.6993, "ARG_OF_PERICENTER": 193.2206, "MEAN_ANOMALY": 171.5523, "EPHEMERIS_TYPE": 0, "CLASSIFICATION_TYPE": "U", "NORAD_CAT_ID": 54741, "ELEMENT_SET_NO": 999, "REV_AT_EPOCH": 1097, "BSTAR": 0, "MEAN_MOTION_DOT": -1.6e-06, "MEAN_MOTION_DDOT": 0}, "tle": {"line1": "1 54741U 22170A   25342.25360031 -.00000160  00000+0  00000+0 0  9995", "line2": "2 54741   0.0173  70.6993 0002692 193.2206 171.5523  1.00271048 10974"}}, "geometry": {"type": "Point", "coordinates": [-139.7495205771948, -0.006183218039426273]}}, {"type": "Feature", "properties": {"norad_id": 54742, "name": "GALAXY 36 (G-36)", "group": "intelsat", "lat": -0.018070517661425603, "lon": -135.6485312746673, "alt_km": 35784.95451360523, "timestamp": "2025-12-08T15:42:49.446639+00:00", "meta": {"OBJECT_NAME": "GALAXY 36 (G-36)", "OBJECT_ID": "2022-170B", "EPOCH": "2025-12-08T06:07:07.853664", "MEAN_MOTION": 1.00270845, "ECCENTRICITY": 6.009e-05, "INCLINATION": 0.0076, "RA_OF_ASC_NODE": 17.0792, "ARG_OF_PERICENTER": 263.4805, "MEAN_ANOMALY": 159.4861, "EPHEMERIS_TYPE": 0, "CLASSIFICATION_TYPE": "U", "NORAD_CAT_ID": 54742, "ELEMENT_SET_NO": 999, "REV_AT_EPOCH": 1085, "BSTAR": 0, "MEAN_MOTION_DOT": -1.83e-06, "MEAN_MOTION_DDOT": 0}, "tle": {"line1": "1 54742U 22170B   25342.25495201 -.00000183  00000+0  00000+0 0  9999", "line2": "2 54742   0.0076  17.0792 0000600 263.4805 159.4861  1.00270845 10852"}}, "geometry": {"type": "Point", "coordinates": [-135.6485312746673, -0.018070517661425603]}}, {"type": "Feature", "properties": {"norad_id": 57493, "name": "GALAXY 37 (G-37)", "group": "intelsat", "lat": -0.01768102259557916, "lon": -173.6649472792814, "alt_km": 35783.81953442101, "timestamp": "2025-12-08T15:42:49.446650+00:00", "meta": {"OBJECT_NAME": "GALAXY 37 (G-37)", "OBJECT_ID": "2023-112A", "EPOCH": "2025-12-08T06:46:03.618048", "MEAN_MOTION": 1.00271142, "ECCENTRICITY": 0.00023782, "INCLINATION": 0.0101, "RA_OF_ASC_NODE": 324.5093, "ARG_OF_PERICENTER": 297.9622, "MEAN_ANOMALY": 149.3372, "EPHEMERIS_TYPE": 0, "CLASSIFICATION_TYPE": "U", "NORAD_CAT_ID": 57493, "ELEMENT_SET_NO": 999, "REV_AT_EPOCH": 862, "BSTAR": 0, "MEAN_MOTION_DOT": 5.1e-07, "MEAN_MOTION_DDOT": 0}, "tle": {"line1": "1 57493U 23112A   25342.28198632  .00000051  00000+0  00000+0 0  9996", "line2": "2 57493   0.0101 324.5093 0002378 297.9622 149.3372  1.00271142  8628"}}, "geometry": {"type": "Point", "coordinates": [-173.6649472792814, -0.01768102259557916]}}]}